CCSDS_OMM_VERS = 2.0
CREATION_DATE  = 
ORIGINATOR     = 

OBJECT_NAME    = ATLAS CENTAUR 2
OBJECT_ID      = 1963-047A
CENTER_NAME    = EARTH
REF_FRAME      = TEME
TIME_SYSTEM    = UTC
MEAN_ELEMENT_THEORY = SGP/SGP4

EPOCH          = 2026-01-25T11:48:13.209120
MEAN_MOTION    = 14.11942457
ECCENTRICITY   = .05481742
INCLINATION    = 30.3531
RA_OF_ASC_NODE = 77.0287
ARG_OF_PERICENTER = 59.6392
MEAN_ANOMALY   = 305.7255

EPHEMERIS_TYPE = 0
CLASSIFICATION_TYPE = U
NORAD_CAT_ID   = 694
ELEMENT_SET_NO = 999
REV_AT_EPOCH   = 12551
BSTAR          = .24649321E-3
MEAN_MOTION_DOT = .2091E-4
MEAN_MOTION_DDOT = 0

CCSDS_OMM_VERS = 2.0
CREATION_DATE  = 
ORIGINATOR     = 

OBJECT_NAME    = THOR AGENA D R/B
OBJECT_ID      = 1964-002A
CENTER_NAME    = EARTH
REF_FRAME      = TEME
TIME_SYSTEM    = UTC
MEAN_ELEMENT_THEORY = SGP/SGP4

EPOCH          = 2026-01-25T11:19:12.685440
MEAN_MOTION    = 14.33990259
ECCENTRICITY   = .00333406
INCLINATION    = 99.1227
RA_OF_ASC_NODE = 36.4576
ARG_OF_PERICENTER = 25.9134
MEAN_ANOMALY   = 334.3710

EPHEMERIS_TYPE = 0
CLASSIFICATION_TYPE = U
NORAD_CAT_ID   = 733
ELEMENT_SET_NO = 999
REV_AT_EPOCH   = 23210
BSTAR          = .15335978E-3
MEAN_MOTION_DOT = .382E-5
MEAN_MOTION_DDOT = 0

CCSDS_OMM_VERS = 2.0
CREATION_DATE  = 
ORIGINATOR     = 

OBJECT_NAME    = SL-3 R/B
OBJECT_ID      = 1964-053B
CENTER_NAME    = EARTH
REF_FRAME      = TEME
TIME_SYSTEM    = UTC
MEAN_ELEMENT_THEORY = SGP/SGP4

EPOCH          = 2026-01-25T12:13:21.468000
MEAN_MOTION    = 14.61320199
ECCENTRICITY   = .00773746
INCLINATION    = 65.0770
RA_OF_ASC_NODE = 97.8291
ARG_OF_PERICENTER = 305.9752
MEAN_ANOMALY   = 53.4189

EPHEMERIS_TYPE = 0
CLASSIFICATION_TYPE = U
NORAD_CAT_ID   = 877
ELEMENT_SET_NO = 999
REV_AT_EPOCH   = 26048
BSTAR          = .14030621E-3
MEAN_MOTION_DOT = .599E-5
MEAN_MOTION_DDOT = 0

CCSDS_OMM_VERS = 2.0
CREATION_DATE  = 
ORIGINATOR     = 

OBJECT_NAME    = SL-8 R/B
OBJECT_ID      = 1967-045B
CENTER_NAME    = EARTH
REF_FRAME      = TEME
TIME_SYSTEM    = UTC
MEAN_ELEMENT_THEORY = SGP/SGP4

EPOCH          = 2026-01-25T12:44:08.398464
MEAN_MOTION    = 14.45582593
ECCENTRICITY   = .0062838
INCLINATION    = 74.0101
RA_OF_ASC_NODE = 68.6909
ARG_OF_PERICENTER = 86.2729
MEAN_ANOMALY   = 274.5611

EPHEMERIS_TYPE = 0
CLASSIFICATION_TYPE = U
NORAD_CAT_ID   = 2802
ELEMENT_SET_NO = 999
REV_AT_EPOCH   = 8278
BSTAR          = .13014E-3
MEAN_MOTION_DOT = .443E-5
MEAN_MOTION_DDOT = 0

CCSDS_OMM_VERS = 2.0
CREATION_DATE  = 
ORIGINATOR     = 

OBJECT_NAME    = SL-8 R/B
OBJECT_ID      = 1968-040B
CENTER_NAME    = EARTH
REF_FRAME      = TEME
TIME_SYSTEM    = UTC
MEAN_ELEMENT_THEORY = SGP/SGP4

EPOCH          = 2026-01-25T10:43:22.563552
MEAN_MOTION    = 15.02897870
ECCENTRICITY   = .00260103
INCLINATION    = 74.0310
RA_OF_ASC_NODE = 42.0278
ARG_OF_PERICENTER = 237.4013
MEAN_ANOMALY   = 122.4664

EPHEMERIS_TYPE = 0
CLASSIFICATION_TYPE = U
NORAD_CAT_ID   = 3230
ELEMENT_SET_NO = 999
REV_AT_EPOCH   = 8351
BSTAR          = .42485845E-3
MEAN_MOTION_DOT = .5705E-4
MEAN_MOTION_DDOT = 0

CCSDS_OMM_VERS = 2.0
CREATION_DATE  = 
ORIGINATOR     = 

OBJECT_NAME    = OAO 2
OBJECT_ID      = 1968-110A
CENTER_NAME    = EARTH
REF_FRAME      = TEME
TIME_SYSTEM    = UTC
MEAN_ELEMENT_THEORY = SGP/SGP4

EPOCH          = 2026-01-25T17:37:33.340224
MEAN_MOTION    = 14.47277666
ECCENTRICITY   = .0005825
INCLINATION    = 34.9926
RA_OF_ASC_NODE = 145.0460
ARG_OF_PERICENTER = 218.9876
MEAN_ANOMALY   = 141.0395

EPHEMERIS_TYPE = 0
CLASSIFICATION_TYPE = U
NORAD_CAT_ID   = 3597
ELEMENT_SET_NO = 999
REV_AT_EPOCH   = 1287
BSTAR          = .14829E-3
MEAN_MOTION_DOT = .531E-5
MEAN_MOTION_DDOT = 0

CCSDS_OMM_VERS = 2.0
CREATION_DATE  = 
ORIGINATOR     = 

OBJECT_NAME    = ISIS 1
OBJECT_ID      = 1969-009A
CENTER_NAME    = EARTH
REF_FRAME      = TEME
TIME_SYSTEM    = UTC
MEAN_ELEMENT_THEORY = SGP/SGP4

EPOCH          = 2026-01-25T18:56:32.077824
MEAN_MOTION    = 11.30389116
ECCENTRICITY   = .1707864
INCLINATION    = 88.4539
RA_OF_ASC_NODE = 159.9834
ARG_OF_PERICENTER = 175.7264
MEAN_ANOMALY   = 186.0772

EPHEMERIS_TYPE = 0
CLASSIFICATION_TYPE = U
NORAD_CAT_ID   = 3669
ELEMENT_SET_NO = 999
REV_AT_EPOCH   = 34368
BSTAR          = .44843E-3
MEAN_MOTION_DOT = .639E-5
MEAN_MOTION_DDOT = 0

CCSDS_OMM_VERS = 2.0
CREATION_DATE  = 
ORIGINATOR     = 

OBJECT_NAME    = SERT 2
OBJECT_ID      = 1970-009A
CENTER_NAME    = EARTH
REF_FRAME      = TEME
TIME_SYSTEM    = UTC
MEAN_ELEMENT_THEORY = SGP/SGP4

EPOCH          = 2026-01-25T15:27:12.426048
MEAN_MOTION    = 13.58724952
ECCENTRICITY   = .0004032
INCLINATION    = 99.2706
RA_OF_ASC_NODE = 331.1059
ARG_OF_PERICENTER = 278.3835
MEAN_ANOMALY   = 254.5300

EPHEMERIS_TYPE = 0
CLASSIFICATION_TYPE = U
NORAD_CAT_ID   = 4327
ELEMENT_SET_NO = 999
REV_AT_EPOCH   = 77404
BSTAR          = .16406E-3
MEAN_MOTION_DOT = .79E-6
MEAN_MOTION_DDOT = 0

CCSDS_OMM_VERS = 2.0
CREATION_DATE  = 
ORIGINATOR     = 

OBJECT_NAME    = SL-3 R/B
OBJECT_ID      = 1971-028B
CENTER_NAME    = EARTH
REF_FRAME      = TEME
TIME_SYSTEM    = UTC
MEAN_ELEMENT_THEORY = SGP/SGP4

EPOCH          = 2026-01-25T18:59:20.249376
MEAN_MOTION    = 15.57740199
ECCENTRICITY   = .0017949
INCLINATION    = 81.2364
RA_OF_ASC_NODE = 104.8800
ARG_OF_PERICENTER = 83.8995
MEAN_ANOMALY   = 276.4300

EPHEMERIS_TYPE = 0
CLASSIFICATION_TYPE = U
NORAD_CAT_ID   = 5118
ELEMENT_SET_NO = 999
REV_AT_EPOCH   = 98198
BSTAR          = .63521E-3
MEAN_MOTION_DOT = .47691E-3
MEAN_MOTION_DDOT = 0

CCSDS_OMM_VERS = 2.0
CREATION_DATE  = 
ORIGINATOR     = 

OBJECT_NAME    = ASTEX 1
OBJECT_ID      = 1971-089A
CENTER_NAME    = EARTH
REF_FRAME      = TEME
TIME_SYSTEM    = UTC
MEAN_ELEMENT_THEORY = SGP/SGP4

EPOCH          = 2026-01-25T18:45:59.958144
MEAN_MOTION    = 14.50712267
ECCENTRICITY   = .0014026
INCLINATION    = 92.7157
RA_OF_ASC_NODE = 137.8749
ARG_OF_PERICENTER = 223.5907
MEAN_ANOMALY   = 136.4192

EPHEMERIS_TYPE = 0
CLASSIFICATION_TYPE = U
NORAD_CAT_ID   = 5560
ELEMENT_SET_NO = 999
REV_AT_EPOCH   = 85608
BSTAR          = .27592E-3
MEAN_MOTION_DOT = .1084E-4
MEAN_MOTION_DDOT = 0

CCSDS_OMM_VERS = 2.0
CREATION_DATE  = 
ORIGINATOR     = 

OBJECT_NAME    = SL-8 R/B
OBJECT_ID      = 1971-119B
CENTER_NAME    = EARTH
REF_FRAME      = TEME
TIME_SYSTEM    = UTC
MEAN_ELEMENT_THEORY = SGP/SGP4

EPOCH          = 2026-01-25T13:38:47.389920
MEAN_MOTION    = 14.36674256
ECCENTRICITY   = .0555384
INCLINATION    = 73.8861
RA_OF_ASC_NODE = 256.2505
ARG_OF_PERICENTER = 231.6922
MEAN_ANOMALY   = 123.3055

EPHEMERIS_TYPE = 0
CLASSIFICATION_TYPE = U
NORAD_CAT_ID   = 5730
ELEMENT_SET_NO = 999
REV_AT_EPOCH   = 64929
BSTAR          = .44286E-3
MEAN_MOTION_DOT = .8514E-4
MEAN_MOTION_DDOT = 0

CCSDS_OMM_VERS = 2.0
CREATION_DATE  = 
ORIGINATOR     = 

OBJECT_NAME    = OAO 3 (COPERNICUS)
OBJECT_ID      = 1972-065A
CENTER_NAME    = EARTH
REF_FRAME      = TEME
TIME_SYSTEM    = UTC
MEAN_ELEMENT_THEORY = SGP/SGP4

EPOCH          = 2026-01-25T19:18:24.708096
MEAN_MOTION    = 14.59955215
ECCENTRICITY   = .0006444
INCLINATION    = 35.0041
RA_OF_ASC_NODE = 181.6412
ARG_OF_PERICENTER = 175.9252
MEAN_ANOMALY   = 328.7412

EPHEMERIS_TYPE = 0
CLASSIFICATION_TYPE = U
NORAD_CAT_ID   = 6153
ELEMENT_SET_NO = 999
REV_AT_EPOCH   = 83992
BSTAR          = .15096E-3
MEAN_MOTION_DOT = .714E-5
MEAN_MOTION_DDOT = 0

